NORAD_CAT_ID,OBJECT_NAME,OBJECT_TYPE,EPOCH,MEAN_MOTION,ECCENTRICITY,INCLINATION,RA_OF_ASC_NODE,ARG_OF_PERICENTER,MEAN_ANOMALY,BSTAR,MEAN_MOTION_DOT,MEAN_MOTION_DDOT,TLE_LINE0,TLE_LINE1,TLE_LINE2,SEMIMAJOR_AXIS,PERIOD,APOGEE,PERIGEE,DECAYED
51791.0,STARLINK-3602,PAYLOAD,2023-10-05 05:28:53,15.08856802,0.0002434,53.2176,8.6034,77.6088,282.5177,0.00027717,4.128e-05,0.0,0 STARLINK-3602,1 51791U 22017Z   23278.22840194  .00004128  00000-0  27717-3 0  9999,2 51791  53.2176   8.6034 0002434  77.6088 282.5177 15.08856802 90092,6917.829,95.436,541.378,538.01,0.0
51791.0,STARLINK-3602,PAYLOAD,2023-10-05 10:15:03,15.08846475,0.0001876,53.2174,7.7107,74.7102,285.4097,4.3908e-06,-2.18e-06,0.0,0 STARLINK-3602,1 51791U 22017Z   23278.42712280 -.00000218  00000-0  43908-5 0  9994,2 51791  53.2174   7.7107 0001876  74.7102 285.4097 15.08846475 90127,6917.861,95.437,541.023,538.428,0.0
51791.0,STARLINK-3602,PAYLOAD,2023-10-05 13:25:49,15.08850843,0.0001795,53.2179,7.1159,73.5776,286.5413,0.0001732,2.47e-05,0.0,0 STARLINK-3602,1 51791U 22017Z   23278.55960111  .00002470  00000-0  17320-3 0  9994,2 51791  53.2179   7.1159 0001795  73.5776 286.5413 15.08850843 90147,6917.847,95.437,540.954,538.47,0.0
51791.0,STARLINK-3602,PAYLOAD,2023-10-06 05:19:41,15.08837421,0.0002498,53.2178,4.1451,55.3746,304.7482,0.00015618,2.198e-05,0.0,0 STARLINK-3602,1 51791U 22017Z   23279.22200748  .00002198  00000-0  15618-3 0  9997,2 51791  53.2178   4.1451 0002498  55.3746 304.7482 15.08837421 90241,6917.888,95.438,541.481,538.025,0.0
51791.0,STARLINK-3602,PAYLOAD,2023-10-06 13:16:36,15.08843717,0.0001903,53.2176,2.6551,65.3553,294.7637,0.00018666,2.684e-05,0.0,0 STARLINK-3602,1 51791U 22017Z   23279.55320557  .00002684  00000-0  18666-3 0  9990,2 51791  53.2176   2.6551 0001903  65.3553 294.7637 15.08843717 90290,6917.869,95.437,541.05,538.418,0.0
51791.0,STARLINK-3602,PAYLOAD,2023-10-07 09:56:38,15.0883585,0.0001791,53.2171,358.7907,78.6319,281.4874,0.00011101,1.479e-05,0.0,0 STARLINK-3602,1 51791U 22017Z   23280.41432991  .00001479  00000-0  11101-3 0  9991,2 51791  53.2171 358.7907 0001791  78.6319 281.4874 15.08835850 90427,6917.893,95.438,540.997,538.519,0.0
51791.0,STARLINK-3602,PAYLOAD,2023-10-07 13:07:23,15.08849336,0.0001538,53.2174,358.1919,86.9274,273.1894,0.00031269,4.693e-05,0.0,0 STARLINK-3602,1 51791U 22017Z   23280.54680337  .00004693  00000-0  31269-3 0  9992,2 51791  53.2174 358.1919 0001538  86.9274 273.1894 15.08849336 90444,6917.852,95.437,540.781,538.653,0.0
51791.0,STARLINK-3602,PAYLOAD,2023-10-07 22:39:42,15.08842201,0.000172,53.2174,356.4098,84.804,275.3149,0.00017796,2.545e-05,0.0,0 STARLINK-3602,1 51791U 22017Z   23280.94424755  .00002545  00000-0  17796-3 0  9999,2 51791  53.2174 356.4098 0001720  84.8040 275.3149 15.08842201 90502,6917.874,95.437,540.929,538.549,0.0
51791.0,STARLINK-3602,PAYLOAD,2023-10-08 11:22:48,15.08844504,0.0001757,53.2176,354.0301,95.3403,264.779,0.00019669,2.844e-05,0.0,0 STARLINK-3602,1 51791U 22017Z   23281.47416886  .00002844  00000-0  19669-3 0  9997,2 51791  53.2176 354.0301 0001757  95.3403 264.7790 15.08844504 90585,6917.867,95.437,540.947,538.516,0.0
51791.0,STARLINK-3602,PAYLOAD,2023-10-08 14:33:34,15.08848522,0.0001855,53.217,353.4339,99.985,260.1351,0.00027907,4.157e-05,0.0,0 STARLINK-3602,1 51791U 22017Z   23281.60664728  .00004157  00000-0  27907-3 0  9995,2 51791  53.2170 353.4339 0001855  99.9850 260.1351 15.08848522 90608,6917.854,95.437,541.003,538.436,0.0
51791.0,STARLINK-3602,PAYLOAD,2023-10-08 22:30:30,15.08839427,7.82e-05,53.2182,351.9488,85.7949,274.3133,8.8129e-05,1.115e-05,0.0,0 STARLINK-3602,1 51791U 22017Z   23281.93784872  .00001115  00000-0  88129-4 0  9999,2 51791  53.2182 351.9488 0000782  85.7949 274.3133 15.08839427 90653,6917.882,95.438,540.288,539.206,0.0
51791.0,STARLINK-3602,PAYLOAD,2023-10-09 14:24:21,15.08850386,0.0001724,53.2181,348.973,94.185,265.9339,0.0003872,5.881e-05,0.0,0 STARLINK-3602,1 51791U 22017Z   23282.60025041  .00005881  00000-0  38720-3 0  9995,2 51791  53.2181 348.9730 0001724  94.1850 265.9339 15.08850386 90752,6917.849,95.437,540.906,538.521,0.0
51791.0,STARLINK-3602,PAYLOAD,2023-10-10 11:04:22,15.08856218,0.0001513,53.218,345.1097,92.6624,267.4541,0.00047205,7.236e-05,0.0,0 STARLINK-3602,1 51791U 22017Z   23283.46136741  .00007236  00000-0  47205-3 0  9994,2 51791  53.2180 345.1097 0001513  92.6624 267.4541 15.08856218 90880,6917.831,95.437,540.742,538.649,0.0
51791.0,STARLINK-3602,PAYLOAD,2023-10-10 12:39:45,15.088606,0.0001523,53.2184,344.8107,92.9144,267.2022,0.00070714,0.0001099,0.0,0 STARLINK-3602,1 51791U 22017Z   23283.52760669  .00010990  00000-0  70714-3 0  9995,2 51791  53.2184 344.8107 0001523  92.9144 267.2022 15.08860600 90896,6917.817,95.436,540.736,538.629,0.0
51791.0,STARLINK-3602,PAYLOAD,2023-10-11 10:55:09,15.08834266,0.0001544,53.2179,340.65,76.8818,283.2346,0.0004434,6.775e-05,0.0,0 STARLINK-3602,1 51791U 22017Z   23284.45497619  .00006775  00000-0  44340-3 0  9992,2 51791  53.2179 340.6500 0001544  76.8818 283.2346 15.08834266 91036,6917.898,95.438,540.831,538.695,0.0
51791.0,STARLINK-3602,PAYLOAD,2023-10-11 12:30:33,15.08836373,0.0001529,53.2179,340.3523,75.3852,284.731,0.00050556,7.766e-05,0.0,0 STARLINK-3602,1 51791U 22017Z   23284.52121630  .00007766  00000-0  50556-3 0  9994,2 51791  53.2179 340.3523 0001529  75.3852 284.7310 15.08836373 91042,6917.891,95.438,540.814,538.699,0.0
51791.0,STARLINK-3602,PAYLOAD,2023-10-12 10:45:57,15.08848824,0.0001567,53.2174,336.1916,82.9681,277.149,0.00064507,9.996e-05,0.0,0 STARLINK-3602,1 51791U 22017Z   23285.44857767  .00009996  00000-0  64507-3 0  9991,2 51791  53.2174 336.1916 0001567  82.9681 277.1490 15.08848824 91186,6917.853,95.437,540.802,538.634,0.0
51791.0,STARLINK-3602,PAYLOAD,2023-10-12 20:18:16,15.08843582,0.0001455,53.2169,334.4061,84.3904,275.7254,0.00070218,0.00010906,0.0,0 STARLINK-3602,1 51791U 22017Z   23285.84601896  .00010906  00000-0  70218-3 0  9994,2 51791  53.2169 334.4061 0001455  84.3904 275.7254 15.08843582 91247,6917.869,95.437,540.741,538.728,0.0
51791.0,STARLINK-3602,PAYLOAD,2023-10-13 02:39:48,15.08845778,0.0001858,53.2174,333.2191,89.8003,270.3203,0.00022709,3.328e-05,0.0,0 STARLINK-3602,1 51791U 22017Z   23286.11097928  .00003328  00000-0  22709-3 0  9992,2 51791  53.2174 333.2191 0001858  89.8003 270.3203 15.08845778 91289,6917.863,95.437,541.013,538.442,0.0
51791.0,STARLINK-3602,PAYLOAD,2023-10-13 10:36:44,15.08842661,0.0001813,53.2172,331.7296,82.383,277.7368,0.00019926,2.885e-05,0.0,0 STARLINK-3602,1 51791U 22017Z   23286.44217952  .00002885  00000-0  19926-3 0  9993,2 51791  53.2172 331.7296 0001813  82.3830 277.7368 15.08842661 91330,6917.872,95.437,540.991,538.483,0.0
51791.0,STARLINK-3602,PAYLOAD,2023-10-14 10:27:30,15.08855056,0.0001768,53.2169,327.2698,87.3503,272.7691,0.00030466,4.566e-05,0.0,0 STARLINK-3602,1 51791U 22017Z   23287.43577224  .00004566  00000-0  30466-3 0  9994,2 51791  53.2169 327.2698 0001768  87.3503 272.7691 15.08855056 91485,6917.834,95.437,540.922,538.476,0.0
51791.0,STARLINK-3602,PAYLOAD,2023-10-14 12:02:53,15.08858082,0.0001777,53.2167,326.9724,87.6264,272.4931,0.00042925,6.553e-05,0.0,0 STARLINK-3602,1 51791U 22017Z   23287.50201120  .00006553  00000-0  42925-3 0  9992,2 51791  53.2167 326.9724 0001777  87.6264 272.4931 15.08858082 91493,6917.825,95.436,540.919,538.461,0.0
51791.0,STARLINK-3602,PAYLOAD,2023-10-14 19:59:50,15.08835393,0.0001958,53.217,325.4874,84.9779,275.1436,-7.919e-05,-1.548e-05,0.0,0 STARLINK-3602,1 51791U 22017Z   23287.83321895 -.00001548  00000-0 -79190-4 0  9996,2 51791  53.2170 325.4874 0001958  84.9779 275.1436 15.08835393 91545,6917.894,95.438,541.114,538.405,0.0
51791.0,STARLINK-3602,PAYLOAD,2023-10-15 08:42:55,15.08829326,0.0001754,53.217,323.1051,94.0632,266.0561,-0.00014013,-2.517e-05,0.0,0 STARLINK-3602,1 51791U 22017Z   23288.36314340 -.00002517  00000-0 -14013-3 0  9991,2 51791  53.2170 323.1051 0001754  94.0632 266.0561 15.08829326 91627,6917.913,95.438,540.991,538.565,0.0
51791.0,STARLINK-3602,PAYLOAD,2023-10-15 19:50:37,15.08830669,0.0001784,53.2169,321.0224,107.5777,252.541,3.1806e-05,2.18e-06,0.0,0 STARLINK-3602,1 51791U 22017Z   23288.82682770  .00000218  00000-0  31806-4 0  9991,2 51791  53.2169 321.0224 0001784 107.5777 252.5410 15.08830669 91699,6917.909,95.438,541.008,538.54,0.0
51791.0,STARLINK-3602,PAYLOAD,2023-10-16 08:33:42,15.08847685,0.0001583,53.2155,318.6444,90.309,269.8084,0.00054976,8.474e-05,0.0,0 STARLINK-3602,1 51791U 22017Z   23289.35674534  .00008474  00000-0  54976-3 0  9993,2 51791  53.2155 318.6444 0001583  90.3090 269.8084 15.08847685 91777,6917.857,95.437,540.817,538.627,0.0
51791.0,STARLINK-3602,PAYLOAD,2023-10-17 05:13:43,15.08848613,0.0001595,53.2153,314.7781,90.0411,270.0763,0.00040954,6.237e-05,0.0,0 STARLINK-3602,1 51791U 22017Z   23290.21786517  .00006237  00000-0  40954-3 0  9991,2 51791  53.2153 314.7781 0001595  90.0411 270.0763 15.08848613 91908,6917.854,95.437,540.822,538.616,0.0
51791.0,STARLINK-3602,PAYLOAD,2023-10-18 01:53:44,15.08845096,0.0001926,53.2177,310.9112,101.6123,258.5085,0.00012502,1.702e-05,0.0,0 STARLINK-3602,1 51791U 22017Z   23291.07898279  .00001702  00000-0  12502-3 0  9995,2 51791  53.2177 310.9112 0001926 101.6123 258.5085 15.08845096 92032,6917.865,95.437,541.062,538.397,0.0
51791.0,STARLINK-3602,PAYLOAD,2023-10-18 11:26:02,15.08843328,0.0001839,53.217,309.1269,100.8551,259.2648,6.1472e-05,6.9e-06,0.0,0 STARLINK-3602,1 51791U 22017Z   23291.47642338  .00000690  00000-0  61472-4 0  9998,2 51791  53.2170 309.1269 0001839 100.8551 259.2648 15.08843328 92092,6917.87,95.437,541.007,538.463,0.0
51791.0,STARLINK-3602,PAYLOAD,2023-10-19 06:30:40,15.08850541,0.0001716,53.217,305.5581,99.2289,260.8898,0.0001741,2.485e-05,0.0,0 STARLINK-3602,1 51791U 22017Z   23292.27130027  .00002485  00000-0  17410-3 0  9990,2 51791  53.2170 305.5581 0001716  99.2289 260.8898 15.08850541 92216,6917.848,95.437,540.9,538.526,0.0
